TIANLIAN 1-05           
1 49011U 21063A   24346.16822413  .00000124  00000+0  00000+0 0  9998
2 49011   0.1735  68.6091 0005286 188.9815 260.1441  1.00271370 12523
STAR ONE D2             
1 49055U 21069A   24344.51993941 -.00000248  00000+0  00000+0 0  9992
2 49055   0.0138   4.9477 0002196 219.0983 331.7840  1.00262030 12371
EUTELSAT QUANTUM        
1 49056U 21069B   24345.88846262  .00000142  00000+0  00000+0 0  9999
2 49056   0.0238  38.1046 0002656 221.9615 187.5879  1.00272342 12386
ZHONGXING-2E            
1 49062U 21071A   24346.11288122 -.00000275  00000+0  00000+0 0  9999
2 49062   0.0370 255.7685 0001963   6.5050 316.7332  1.00272644 12482
TJS-7                   
1 49115U 21077A   24345.85927076 -.00000108  00000+0  00000+0 0  9997
2 49115   0.0738 270.9156 0002425 305.7741  73.1995  1.00272677 12267
CHINASAT 9B             
1 49125U 21080A   24346.11357626 -.00000296  00000+0  00000+0 0  9998
2 49125   0.0234 333.8484 0003982 270.4979 338.2681  1.00269615 12087
SHIJIAN-21 (SJ-21)      
1 49330U 21094A   24345.75739823 -.00000204  00000+0  00000+0 0  9992
2 49330  10.1429  43.9537 0076289  37.1551  61.2908  1.00267622 11715
SES-17                  
1 49332U 21095A   24346.08012723 -.00000256  00000+0  00000+0 0  9992
2 49332   0.0131  17.2832 0001145 240.7827 143.9656  1.00269241 12295
SYRACUSE 4A             
1 49333U 21095B   24343.52964642  .00000151  00000+0  00000+0 0  9998
2 49333   0.0171 356.1359 0001619 255.5358  62.2864  1.00271521 12386
QZS-1R                  
1 49336U 21096A   24345.61702010 -.00000237  00000+0  00000+0 0  9999
2 49336  36.3127  87.8644 0753324 271.1996  78.2283  1.00261680 11450
ZHONGXING-1D            
1 49505U 21114A   24345.90488306 -.00000320  00000+0  00000+0 0  9992
2 49505   0.0231  87.4008 0002636 162.4953 286.1358  1.00271733 11284
STPSAT-6                
1 49817U 21118A   24346.07126543 -.00000030  00000+0  00000+0 0  9991
2 49817   0.0319  84.9976 0002161 202.1931  67.0743  1.00272712 11039
LDPE-1                  
1 49818U 21118B   24345.87577807 -.00000050  00000+0  00000+0 0  9994
2 49818   2.8104  85.6193 0000513 218.6144  74.8859  1.00622397 11085
EXPRESS AMU-7           
1 50001U 21123A   24346.12209056 -.00000226  00000+0  00000+0 0  9998
2 50001   0.0175 287.7434 0000481 269.8708  71.6791  1.00272696 10981
EXPRESS AMU-3           
1 50002U 21123B   24345.49279192 -.00000304  00000+0  00000+0 0  9993
2 50002   0.0217 323.7492 0000307 196.0089 200.2431  1.00269268 10953
TIANLIAN 2-02           
1 50005U 21124A   24346.16993692  .00000002  00000+0  00000+0 0  9994
2 50005   0.2146 273.8017 0004375 355.6033  43.1423  1.00271585 11061
TURKSAT 5B              
1 50212U 21126A   24346.17271601  .00000162  00000+0  00000+0 0  9993
2 50212   0.0675 343.8329 0004504 313.9153 246.8425  1.00269109 10741
INMARSAT 6-F1           
1 50319U 21128A   24346.19979958 -.00000155  00000+0  00000+0 0  9998
2 50319   0.0151 305.3629 0000090 261.3817  29.3514  1.00268724 10692
SHIYAN 12 01 (SY-12 01) 
1 50321U 21129A   24345.82641392 -.00000343  00000+0  00000+0 0  9998
2 50321   2.2416  87.9713 0002840 240.7038 171.2549  1.00092273 10959
SHIYAN 12 02 (SY-12 02) 
1 50322U 21129B   24345.88437924  .00000170  00000+0  00000+0 0  9996
2 50322   2.2420  87.9913 0000734 166.4561 170.8234  1.00459832 10945
TJS-9                   
1 50574U 21135A   24345.90627314 -.00000284  00000+0  00000+0 0  9996
2 50574   0.0219 260.1574 0002668 325.3137 318.0709  1.00267626 10881
USA 324                 
1 51280U 22006A   24341.33044417 -.00000313  00000+0  00000+0 0  9992
2 51280   0.3142  83.0501 0001037 188.3235  50.6302  1.00443583 10539
USA 325                 
1 51281U 22006B   24341.02487896  .00000162  00000+0  00000+0 0  9992
2 51281   0.7738  86.4073 0000666 236.5888 149.8543  1.00161285  1807
GOES 18                 
1 51850U 22021A   24345.99472367  .00000113  00000+0  00000+0 0  9994
2 51850   0.0213 154.0668 0000586 132.5893  14.6444  1.00269825 10251
ZHONGXING-6D            
1 52255U 22038A   24345.43125779 -.00000338  00000+0  00000+0 0  9993
2 52255   0.0241 280.3330 0002953 349.1665  90.4839  1.00269139  9878
NILESAT 301             
1 52817U 22061A   24345.73470867 -.00000042  00000+0  00000+0 0  9999
2 52817   0.0447 345.1714 0004173 298.4018  53.8700  1.00271143  9182
CMS-02 (GSAT 24)        
1 52903U 22067A   24345.89549994 -.00000149  00000+0  00000+0 0  9994
2 52903   0.0153 271.8035 0004957 349.2875 224.4122  1.00269446  9063
MEASAT 3D               
1 52904U 22067B   24345.82575949 -.00000226  00000+0  00000+0 0  9993
2 52904   0.0295  17.6369 0003283 275.9277 175.2675  1.00269972  9104
SES-22                  
1 52933U 22071A   24345.50952212  .00000121  00000+0  00000+0 0  9990
2 52933   0.0167 334.0070 0003316 290.4918 219.6710  1.00272935  1973
WFOV (USA 332)          
1 52940U 22073A   24345.75973028 -.00000347  00000+0  00000+0 0  9996
2 52940   2.2821  85.7922 0001798 130.6194 256.3796  1.00272141  8823
TIANLIAN 2-03           
1 53100U 22078A   24345.74860854  .00000088  00000+0  00000+0 0  9992
2 53100   0.7731 279.0880 0002813 351.8037  89.0948  1.00271938  9002
SBIRS GEO-6 (USA 336)   
1 53355U 22092A   24345.83514260 -.00000278  00000+0  00000+0 0  9999
2 53355   4.2898 311.7872 0002427 305.9684 261.9587  1.00270591  8688
EUTELSAT KONNECT VHTS   
1 53765U 22110A   24343.59272174  .00000033  00000+0  00000+0 0  9999
2 53765   0.0540 100.9018 0002980 131.2366  61.7936  1.00270795  1269
ZHONGXING-1E            
1 53813U 22112A   24345.89515243 -.00000133  00000+0  00000+0 0  9999
2 53813   0.0291 249.8012 0004941  15.8879 218.0597  1.00270578  8309
SES-20                  
1 53960U 22123A   24346.00150035 -.00000085  00000+0  00000+0 0  9998
2 53960   0.0154  33.7040 0000968  58.5921 245.3361  1.00269408  7983
SES-21                  
1 53961U 22123B   24345.45257618  .00000086  00000+0  00000+0 0  9992
2 53961   0.0238  21.9226 0000961 238.7775 210.8959  1.00270415  1663
GALAXY 33 (G-33)        
1 54026U 22128A   24345.49526584  .00000095  00000+0  00000+0 0  9995
2 54026   0.0145 302.0572 0002009 309.3449 233.6119  1.00271967  8197
GALAXY 34 (G-34)        
1 54027U 22128B   24345.45257618  .00000075  00000+0  00000+0 0  9999
2 54027   0.0253 328.1647 0001372 287.0119 218.4872  1.00270757  8360
ANGOSAT 2               
1 54033U 22131A   24346.09793775  .00000152  00000+0  00000+0 0  9996
2 54033   0.0401 112.5567 0001779 182.3024 203.7011  1.00271365  7931
EUTELSAT HOTBIRD 13F    
1 54048U 22134A   24346.02452369  .00000103  00000+0  00000+0 0  9995
2 54048   0.0648 291.7396 0002215  64.9911 105.3394  1.00270284  7891
LDPE-2                  
1 54219U 22144A   24345.95197972 -.00000268  00000+0  00000+0 0  9996
2 54219   4.2390  64.7708 0000944 251.7157  37.2426  1.00793009  6265
EUTELSAT HOTBIRD 13G    
1 54225U 22146A   24345.66720248  .00000103  00000+0  00000+0 0  9998
2 54225   0.0557 251.1298 0001979 290.6524 151.3000  1.00270749  1910
ZHONGXING-19            
1 54230U 22148A   24345.84000791 -.00000064  00000+0  00000+0 0  9997
2 54230   0.0310  93.1547 0008845 156.9344 295.7541  1.00270832  7818
GALAXY 31 (G-31)        
1 54243U 22153A   24345.61982234  .00000030  00000+0  00000+0 0  9995
2 54243   0.0146 279.8222 0001612 344.9237 277.2388  1.00271467  1584
GALAXY 32 (G-32)        
1 54244U 22153B   24346.07534881 -.00000158  00000+0  00000+0 0  9990
2 54244   0.0097 325.3739 0001946 342.7604  68.2830  1.00270565  7623
EUTELSAT 10B            
1 54259U 22157A   24346.09541823  .00000084  00000+0  00000+0 0  9993
2 54259   0.0544  97.6213 0000708  89.2705 297.7830  1.00267045  7507
GALAXY 35 (G-35)        
1 54741U 22170A   24345.86057397 -.00000146  00000+0  00000+0 0  9996
2 54741   0.0156 297.8840 0002271 320.6582  38.2412  1.00271177  7341
GALAXY 36 (G-36)        
1 54742U 22170B   24345.96146810 -.00000169  00000+0  00000+0 0  9992
2 54742   0.0173   0.6562 0000246 108.4328 228.1834  1.00270870  7226
METEOSAT-12 (MTG-I1)    
1 54743U 22170C   24345.66459606  .00000010  00000+0  00000+0 0  9994
2 54743   0.6430  44.6932 0001165 196.8778  77.3081  1.00274822  7420
SHIJIAN-23 (SJ-23)      
1 55131U 23002A   24345.90436177 -.00000314  00000+0  00000+0 0  9994
2 55131   2.2891  85.4436 0002139 190.5572 257.3116  1.00447156  6967
APSTAR-6E               
1 55239U 23005A   24345.59250615 -.00000302  00000+0  00000+0 0  9999
2 55239   0.0520 101.3587 0002143 340.1397 345.6492  1.00267815 22787
USA 342                 
1 55263U 23008A   24344.59747007  .00000155  00000+0  00000+0 0  9999
2 55263   0.0163  27.3849 0000597 293.7211 356.6422  1.00274680  6958
LDPE-3A                 
1 55264U 23008B   24345.90427488 -.00000316  00000+0  00000+0 0  9994
2 55264   0.7896  87.8589 0002154 184.3839 260.5354  1.00448655  6270
ELEKTRO-L 4             
1 55506U 23016A   24345.31841056 -.00000042  00000+0  00000+0 0  9994
2 55506   0.0736 105.1796 0003618 158.4610  96.3354  1.00272198  6771
AMAZONAS NEXUS          
1 55508U 23017A   24345.94844434 -.00000266  00000+0  00000+0 0  9997
2 55508   0.0412  38.8371 0002079 247.9777  73.7631  1.00267253  6709
ZHONGXING-26            
1 55686U 23023A   24345.97508253 -.00000338  00000+0  00000+0 0  9990
2 55686   0.0743  79.2970 0001132 262.0392 215.0144  1.00267698  6698
LUCH-5X (OLYMP-K 2)     
1 55841U 23031A   24345.37851612  .00000006  00000+0  00000+0 0  9997
2 55841   0.0176   9.8640 0001197 286.8601 278.2499  1.00272993  6397
GAOFEN-13 02            
1 55912U 23036A   24345.90844515 -.00000203  00000+0  00000+0 0  9994
2 55912   1.6552 311.2796 0003338 352.8116 251.3430  1.00271016  6546
SES-18                  
1 55970U 23038A   24345.64417913 -.00000084  00000+0  00000+0 0  9996
2 55970   0.0321 277.5901 0002991 347.6316 303.4510  1.00270287  6555
